{
  "type": "FeatureCollection",
  "features": [
    {
      "type": "Feature",
      "properties": {
        "norad_id": 60182,
        "name": "ALOS-4 (DAICHI-4)",
        "group": "resource",
        "lat": -24.141555444162908,
        "lon": 96.58272516611926,
        "alt_km": 636.9018205110387,
        "timestamp": "2025-12-24T07:45:05.856832+00:00",
        "meta_object_name": "ALOS-4 (DAICHI-4)",
        "meta_object_id": "2024-123A",
        "meta_epoch": "2025-12-20T19:27:23.065632",
        "meta_mean_motion": 14.79476706,
        "meta_eccentricity": 0.00013885,
        "meta_inclination": 97.9224,
        "meta_ra_of_asc_node": 89.5428,
        "meta_arg_of_pericenter": 101.3368,
        "meta_mean_anomaly": 258.8,
        "meta_ephemeris_type": 0,
        "meta_classification_type": "U",
        "meta_norad_cat_id": 60182,
        "meta_element_set_no": 999,
        "meta_rev_at_epoch": 7950,
        "meta_bstar": 0.00018386978,
        "meta_mean_motion_dot": 1.322e-05,
        "meta_mean_motion_ddot": 0,
        "tle_line1": "1 60182U 24123A   25354.81068363  .00001322  00000+0  18387-3 0  9990",
        "tle_line2": "2 60182  97.9224  89.5428 0001388 101.3368 258.8000 14.79476706 79505"
      },
      "geometry": {
        "type": "Point",
        "coordinates": [
          96.58272516611926,
          -24.141555444162908
        ]
      }
    },
    {
      "type": "Feature",
      "properties": {
        "norad_id": 60452,
        "name": "LEGION 3",
        "group": "resource",
        "lat": -4.0855670985084,
        "lon": 72.13016358394685,
        "alt_km": 516.0192320081742,
        "timestamp": "2025-12-24T07:45:05.856842+00:00",
        "meta_object_name": "LEGION 3",
        "meta_object_id": "2024-146A",
        "meta_epoch": "2025-12-23T19:51:48.372480",
        "meta_mean_motion": 15.15868102,
        "meta_eccentricity": 0.00157181,
        "meta_inclination": 45.0003,
        "meta_ra_of_asc_node": 250.6886,
        "meta_arg_of_pericenter": 257.8603,
        "meta_mean_anomaly": 102.0515,
        "meta_ephemeris_type": 0,
        "meta_classification_type": "U",
        "meta_norad_cat_id": 60452,
        "meta_element_set_no": 999,
        "meta_rev_at_epoch": 7541,
        "meta_bstar": 0.00026568383,
        "meta_mean_motion_dot": 4.922e-05,
        "meta_mean_motion_ddot": 0,
        "tle_line1": "1 60452U 24146A   25357.82764320  .00004922  00000+0  26568-3 0  9994",
        "tle_line2": "2 60452  45.0003 250.6886 0015718 257.8603 102.0515 15.15868102 75417"
      },
      "geometry": {
        "type": "Point",
        "coordinates": [
          72.13016358394685,
          -4.0855670985084
        ]
      }
    },
    {
      "type": "Feature",
      "properties": {
        "norad_id": 60453,
        "name": "LEGION 4",
        "group": "resource",
        "lat": -3.7349432133675915,
        "lon": 163.55595415086324,
        "alt_km": 524.2016281255546,
        "timestamp": "2025-12-24T07:45:05.856853+00:00",
        "meta_object_name": "LEGION 4",
        "meta_object_id": "2024-146B",
        "meta_epoch": "2025-12-23T23:01:51.345984",
        "meta_mean_motion": 15.15938628,
        "meta_eccentricity": 0.0008263,
        "meta_inclination": 45.0393,
        "meta_ra_of_asc_node": 341.7637,
        "meta_arg_of_pericenter": 13.2229,
        "meta_mean_anomaly": 346.8865,
        "meta_ephemeris_type": 0,
        "meta_classification_type": "U",
        "meta_norad_cat_id": 60453,
        "meta_element_set_no": 999,
        "meta_rev_at_epoch": 7428,
        "meta_bstar": 0.00033112089,
        "meta_mean_motion_dot": 6.201e-05,
        "meta_mean_motion_ddot": 0,
        "tle_line1": "1 60453U 24146B   25357.95962206  .00006201  00000+0  33112-3 0  9997",
        "tle_line2": "2 60453  45.0393 341.7637 0008263  13.2229 346.8865 15.15938628 74282"
      },
      "geometry": {
        "type": "Point",
        "coordinates": [
          163.55595415086324,
          -3.7349432133675915
        ]
      }
    },
    {
      "type": "Feature",
      "properties": {
        "norad_id": 60989,
        "name": "SENTINEL-2C",
        "group": "resource",
        "lat": -53.37215261812334,
        "lon": -121.06137882733827,
        "alt_km": 796.6422863887765,
        "timestamp": "2025-12-24T07:45:05.856863+00:00",
        "meta_object_name": "SENTINEL-2C",
        "meta_object_id": "2024-157A",
        "meta_epoch": "2025-12-22T16:03:33.313248",
        "meta_mean_motion": 14.30821394,
        "meta_eccentricity": 0.00011973,
        "meta_inclination": 98.5671,
        "meta_ra_of_asc_node": 69.0082,
        "meta_arg_of_pericenter": 95.1447,
        "meta_mean_anomaly": 264.9872,
        "meta_ephemeris_type": 0,
        "meta_classification_type": "U",
        "meta_norad_cat_id": 60989,
        "meta_element_set_no": 999,
        "meta_rev_at_epoch": 6774,
        "meta_bstar": 7.0243627e-05,
        "meta_mean_motion_dot": 1.41e-06,
        "meta_mean_motion_ddot": 0,
        "tle_line1": "1 60989U 24157A   25356.66913557  .00000141  00000+0  70244-4 0  9990",
        "tle_line2": "2 60989  98.5671  69.0082 0001197  95.1447 264.9872 14.30821394 67740"
      },
      "geometry": {
        "type": "Point",
        "coordinates": [
          -121.06137882733827,
          -53.37215261812334
        ]
      }
    },
    {
      "type": "Feature",
      "properties": {
        "norad_id": 61735,
        "name": "IONOSFERA-M 1",
        "group": "resource",
        "lat": 16.4863997500519,
        "lon": 50.69137470570291,
        "alt_km": 816.9990795766826,
        "timestamp": "2025-12-24T07:45:05.856873+00:00",
        "meta_object_name": "IONOSFERA-M 1",
        "meta_object_id": "2024-199A",
        "meta_epoch": "2025-12-23T22:32:51.616320",
        "meta_mean_motion": 14.2271641,
        "meta_eccentricity": 4.071e-05,
        "meta_inclination": 98.7404,
        "meta_ra_of_asc_node": 227.7014,
        "meta_arg_of_pericenter": 6.8259,
        "meta_mean_anomaly": 353.2925,
        "meta_ephemeris_type": 0,
        "meta_classification_type": "U",
        "meta_norad_cat_id": 61735,
        "meta_element_set_no": 999,
        "meta_rev_at_epoch": 10278,
        "meta_bstar": 4.729858e-05,
        "meta_mean_motion_dot": 6.2e-07,
        "meta_mean_motion_ddot": 0,
        "tle_line1": "1 61735U 24199A   25357.93948630  .00000062  00000+0  47299-4 0  9993",
        "tle_line2": "2 61735  98.7404 227.7014 0000407   6.8259 353.2925 14.22716410102785"
      },
      "geometry": {
        "type": "Point",
        "coordinates": [
          50.69137470570291,
          16.4863997500519
        ]
      }
    },
    {
      "type": "Feature",
      "properties": {
        "norad_id": 61736,
        "name": "IONOSFERA-M 2",
        "group": "resource",
        "lat": -14.011995497249172,
        "lon": -129.80593481034188,
        "alt_km": 821.1603546238466,
        "timestamp": "2025-12-24T07:45:05.856884+00:00",
        "meta_object_name": "IONOSFERA-M 2",
        "meta_object_id": "2024-199B",
        "meta_epoch": "2025-12-23T23:22:43.681152",
        "meta_mean_motion": 14.22718627,
        "meta_eccentricity": 0.00018473,
        "meta_inclination": 98.7395,
        "meta_ra_of_asc_node": 227.6481,
        "meta_arg_of_pericenter": 96.1791,
        "meta_mean_anomaly": 263.9597,
        "meta_ephemeris_type": 0,
        "meta_classification_type": "U",
        "meta_norad_cat_id": 61736,
        "meta_element_set_no": 999,
        "meta_rev_at_epoch": 10591,
        "meta_bstar": 4.6407258e-05,
        "meta_mean_motion_dot": 6e-07,
        "meta_mean_motion_ddot": 0,
        "tle_line1": "1 61736U 24199B   25357.97411668  .00000060  00000+0  46407-4 0  9992",
        "tle_line2": "2 61736  98.7395 227.6481 0001847  96.1791 263.9597 14.22718627105916"
      },
      "geometry": {
        "type": "Point",
        "coordinates": [
          -129.80593481034188,
          -14.011995497249172
        ]
      }
    },
    {
      "type": "Feature",
      "properties": {
        "norad_id": 63772,
        "name": "BIOMASS",
        "group": "resource",
        "lat": -62.891275810683986,
        "lon": -12.926932873824507,
        "alt_km": 676.8513486278516,
        "timestamp": "2025-12-24T07:45:05.856894+00:00",
        "meta_object_name": "BIOMASS",
        "meta_object_id": "2025-090A",
        "meta_epoch": "2025-12-23T19:11:19.220064",
        "meta_mean_motion": 14.67540552,
        "meta_eccentricity": 0.00010921,
        "meta_inclination": 98.07,
        "meta_ra_of_asc_node": 182.648,
        "meta_arg_of_pericenter": 82.9216,
        "meta_mean_anomaly": 277.2113,
        "meta_ephemeris_type": 0,
        "meta_classification_type": "U",
        "meta_norad_cat_id": 63772,
        "meta_element_set_no": 999,
        "meta_rev_at_epoch": 3496,
        "meta_bstar": 0.00020853311,
        "meta_mean_motion_dot": 1.135e-05,
        "meta_mean_motion_ddot": 0,
        "tle_line1": "1 63772U 25090A   25357.79952801  .00001135  00000+0  20853-3 0  9994",
        "tle_line2": "2 63772  98.0700 182.6480 0001092  82.9216 277.2113 14.67540552 34964"
      },
      "geometry": {
        "type": "Point",
        "coordinates": [
          -12.926932873824507,
          -62.891275810683986
        ]
      }
    }
  ]
}